#dP2024  4 19  0  0  0.00000000      97 __u+U IGS20 FIT  IAC
## 2310 432000.00000000   900.00000000 60419 0.0000000000000
+  117   C06C07C08C09C10C11C12C13C14C16C19C20C21C22C23C24C25
+        C26C27C28C29C30C32C33C34C35C36C37C38C39C40C41C42C43
+        C44C45C46E02E03E04E05E07E08E09E10E11E12E13E14E15E19
+        E21E24E25E26E27E30E31E33E34E36G02G03G04G05G06G07G08
+        G09G10G11G12G13G14G15G16G17G18G19G20G21G22G23G24G25
+        G26G27G28G29G30G31G32J02J03J04R01R02R03R04R05R08R09
+        R11R12R13R14R15R16R17R18R19R20R21R22R24R25R26  0  0
++         7  7  7  7  7  6  6  7  7  7  6  6  6  6  6  5  6
++         6  5  5  6  6  6  6  6  6  6  5  6  6  6  5  6  6
++         6  6  5  4  4  4  4  4  4  4  4  4  4  4  5  4  4
++         4  4  4  4  4  4  4  4  4  4  3  4  3  3  4  3  3
++         3  3  3  3  3  3  4  3  4  3  4  3  3  3  3  3  3
++         3  3  4  3  3  3  4 11 11 11  8  7  7  7  7  7  6
++         7  7  8  6  6  6  7  7  8  8  7  7  7  8  7  0  0
%c M  cc GPS ccc cccc cccc cccc cccc ccccc ccccc ccccc ccccc
%c cc cc ccc ccc cccc cccc cccc cccc ccccc ccccc ccccc ccccc
%f  1.2500000  1.025000000  0.00000000000  0.000000000000000
%f  0.0000000  0.000000000  0.00000000000  0.000000000000000
%i    0    0    0    0      0      0      0      0         0
%i    0    0    0    0      0      0      0      0         0
/* INFORMATION & ANALYSIS CENTER (IAC)            FINAL DATA
/* S/V CLOCKS ARE ALIGNED TO GNSS TIME                      
/* G:C1WC2W R:C1PC2P E:C1XC5X C:C2IC6I J:C1CC2S             
/* PCV:IGS20_2290 OL/AL:FES2004  NONE     YN ORB:CoN CLK:CoN
*  2024 04 19  2 15  0.00000000
PC06 -11336.562889  40325.241722   3102.733961    357.139236
PC07  -4351.872726  29943.906668  29511.337444   -807.536673
PC08 -18233.386618  21979.659956 -31106.481250    -37.468191
PC09  -8230.188534  39962.895496   9687.177172   -782.095411
PC10   4418.128525  33241.599345  26187.213727     -5.187162
PC11  -7517.622205 -24418.002284  11280.645876    519.329107
PC12   4384.473196 -26624.282433  -7092.986764   -233.728020
PC13  -9685.852858  23490.990046 -33549.418409    431.818746
PC14 -16750.263043 -18430.084691  12538.566809    677.788626
PC16 -14841.671114  39178.040046  -2314.442124   -467.295940
PC19  23153.391722  15134.547771  -3801.834879   -914.104422
PC20   9570.961073  18918.481623 -18151.593551   -374.947194
PC21  11257.494633 -11486.406302  22827.259820   -963.391171
PC22  24271.197008   2489.188301  13578.965048    -33.889016
PC23 -24880.177722   6350.446745 -10927.984240   -775.956579
PC24   3670.154863 -19265.236520 -19859.094846    937.924383
PC25 -15382.337470  -8520.912189 -21683.375759    378.412022
PC26  19566.978615 -18729.268462  -6662.847794   -279.252577
PC27  -9589.574963  21753.072695  14581.835830    300.999041
PC28 -15624.282759   5351.734956  22494.959561    230.231936
PC29  13413.000020  17312.696465 -17301.536459    270.088304
PC30   2533.935185  27764.440031   -880.580855    -58.853833
PC32 -11196.919599  11545.907805 -22783.329145   -604.876638
PC33 -23154.406372 -15044.167558   3944.884492   -971.436968
PC34  -3555.778220 -27586.459395   2390.322683    415.319586
PC35  15546.034451  -5692.570509 -22486.195513    383.605941
PC36  14997.825144   9042.196093  21745.724452     55.803218
PC37 -20189.876790  18197.144305   6386.722049   -960.636854
PC38 -24408.048821  23409.197749 -25214.599365    149.890904
PC39 -15800.029834  38046.138997  -8352.833620     -8.034123
PC40  -7385.484862  25065.866201  33145.945454    -66.138870
PC41 -24560.749565  -3062.279690 -12809.603582   -928.198811
PC42  -7773.458155 -18757.464562  19172.862531   -442.978386
PC43 -13099.856088 -18204.219462  16605.609263     68.521742
PC44   8948.733934 -22011.392689 -14679.253619    448.003844
PC45  24852.320405  -6291.444377  10996.181720    -80.925805
PC46  -3022.931808  18951.011183  20266.545353   -141.163246
PE02 -27251.488387   5901.015543   9947.935566    120.606212
PE03 -16094.516422   5759.507293 -24160.732679   -108.167377
PE04   2113.398187 -23113.416733  18380.596860   -376.926132
PE05 -20383.898515 -14648.388504 -15672.591554   4739.874579
PE07  12558.904052  26706.586003  -2370.576676   -115.360708
PE08  -2633.457679  22602.970085 -18931.572968   -257.254717
PE09 -12482.036493 -26711.778607   2513.820428   -412.290617
PE10   6050.826202 -25850.230096  13084.679556   -618.237567
PE11  -2596.053741 -21083.294163  20610.369244   3016.355675
PE12  12927.645287 -26273.974779   4415.489649  -1000.505932
PE13   2080.591679  21421.238176 -20314.117685    -21.095904
PE14   7006.949691  28516.173689   7810.709376     10.759565
PE15 -13249.149978  26174.474457  -3879.967272    -97.919139
PE19  17005.238328  -3378.719714  24005.853151   -217.547031
PE21  27734.679086   6467.127562   8066.141500   -590.000935
PE24 -11629.945152 -15807.000751 -22184.572532   -715.382756
PE25 -27563.342581  -6723.760437  -8445.928161      3.501465
PE26  16373.418137   3698.538219 -24379.562464    429.918488
PE27  12003.123822  15636.218719  22076.215378   -327.968077
PE30 -10834.606792  15440.293577  22799.903755   -213.267343
PE31  10600.960605 -15473.478320 -22896.555533    -21.212483
PE33  20610.960115 -15059.101921 -14989.256915     10.602476
PE34 -20545.536503  15551.820652  14560.370508   -106.469433
PE36 -15910.122839  -4265.330675  24591.501711   -215.332768
PG02 -14813.909408  21040.182056   6433.765649   -450.958097
PG03 -14537.483397  12324.290369 -18595.364441    318.370992
PG04  -6189.687925  17000.884625 -19382.562063    342.017652
PG05  24991.378299  -5867.591958   6821.297053   -169.649207
PG06  11207.033238   9481.426759 -22063.967771    315.139594
PG07  -2153.728413  22866.152029  13425.492858   -110.418130
PG08 -13042.852169   8042.977255  21584.204594    130.362420
PG09   5574.032254  23647.571167 -10748.098151    165.477843
PG10 -18246.736100 -10886.477230  16344.929701    -10.607747
PG11  17935.715642  -3281.666373 -19272.961391   -640.256571
PG12  16543.328959 -11231.149262 -17739.117436   -497.842768
PG13  16126.535520   1853.092212  20864.462543    643.866310
PG14  14440.777204  13331.339241  17986.711310    379.825556
PG15  12075.447705  -9785.547745  21043.864318    149.935999
PG16 -26597.857453   -223.537864   2990.991678   -313.231911
PG17  12693.295704  23152.668091  -1503.639602    710.918296
PG18   2505.751800 -22410.395017  13890.337920   -596.887079
PG19  16385.062718  18104.796314 -11087.341829    470.184488
PG20  25989.998031  -1092.191830  -4893.630927    379.665797
PG21 -16524.201152  17040.793403  11243.057969    126.525549
PG22  20546.694478  10927.038736  12949.171899     -1.534409
PG23  -5740.192887 -14387.496931  21624.957559    204.416812
PG24  15032.059185 -20292.588394   7099.315252   -460.941196
PG25   5693.456172 -15278.776804 -21263.368672    494.060958
PG26 -24517.510138  -5145.376179  -9504.548385    164.779259
PG27 -17996.442826  -4787.613344  18811.304338    -19.464246
PG28 -10342.910305 -12117.149528 -21266.015024   -208.977541
PG29  -1624.763424 -23291.053544 -12611.352102   -601.420287
PG30   6899.305489  16732.380891  19494.721629   -403.160327
PG31 -16532.921590  -1460.785186 -21024.292685   -227.999244
PG32 -15761.383521 -21078.600966  -4088.181199   -618.241702
PJ02 -29169.696286  23049.064758  25008.412134     -4.232323
PJ03 -31057.308399  26294.706095  16096.443563     -0.019286
PJ04 -25248.633596  20375.046567 -21828.809814     50.440264
PR01  -8607.180354 -16647.663009  17302.316592     82.899664
PR02 -19313.693786 -16619.216532   1821.762130    -22.766217
PR03 -19683.825577  -6670.993941 -14774.376188     98.532956
PR04  -9093.109528   6327.556945 -22942.020710    232.649590
PR05   6176.473434  16142.291744 -18734.585037    130.176022
PR08   8886.990914  -6740.785339  23003.902625    -75.133628
PR09  13494.103593   5445.230840  20989.749151    181.797163
PR11  21138.181671 -12402.630039  -7096.448262     27.515461
PR12   5109.641733 -13080.780968 -21268.141420     39.161022
PR13 -10967.948423  -6854.266296 -22000.884082    -46.498800
PR14 -23374.725504   5083.538858  -8817.081720     26.400642
PR15 -20359.371091  12729.171294   8616.497091     80.396958
PR16  -5330.476378  13039.383351  21264.238377     24.905482
PR17 -10985.274852   2690.470449  22870.212711     79.250060
PR18  -9683.073715  18571.806660  14530.282562    137.871110
PR19  -5030.493069  25003.826555    360.734670   -273.570378
PR20   5129.045879  16735.975936 -18530.573487   -111.505403
PR21  10917.075062  -2525.570045 -22917.408810    -93.916607
PR22  10126.690710 -19165.483686 -13437.028018    115.418439
PR24  -6459.948201 -16108.136044  18701.350214    -52.406131
PR25  11402.077373  -2387.104841 -22688.821255    -30.124318
PR26   9850.856817  -5885.498400  22808.907242    -24.192636
EOF
